QIANFAN-49              
1 62250U 24232P   25245.51977345  .00000088  00000+0  11799-3 0  9992
2 62250  88.9948  51.4474 0015849 123.8153 236.4510 13.50958768 54178
QIANFAN-50              
1 62251U 24232Q   25245.54453417  .00000087  00000+0  11548-3 0  9996
2 62251  88.9954  51.4474 0017476 125.3491 234.9296 13.50965377 54208
QIANFAN-51              
1 62252U 24232R   25245.52807718  .00000091  00000+0  12201-3 0  9994
2 62252  88.9947  51.4493 0014907 128.0736 232.1762 13.50967792 54199
QIANFAN-52              
1 62253U 24232S   25245.55689410  .00000102  00000+0  13956-3 0  9996
2 62253  88.9944  51.3237 0017045 121.5479 238.7339 13.50962371 54280
QIANFAN-53              
1 62254U 24232T   25245.53630416  .00000094  00000+0  12695-3 0  9996
2 62254  88.9951  51.4228 0015907 122.3543 237.9150 13.50966346 54240
QIANFAN-54              
1 62255U 24232U   25245.57743856  .00000087  00000+0  11581-3 0  9999
2 62255  88.9943  51.1058 0003234 132.4495 227.6930 13.50968393 85754
QIANFAN-55              
1 62785U 25016A   25245.60326107  .00000141  00000+0  19944-3 0  9990
2 62785  88.9798 113.6558 0015613 283.9095  76.0319 13.50962740 33537
QIANFAN-56              
1 62786U 25016B   25245.54581438  .00000122  00000+0  17126-3 0  9993
2 62786  88.9771 113.5258 0014317 287.0743  72.8840 13.50961599 33578
